STARLINK-31016          
1 58548U 23192T   26068.26661358  .00002798  00000+0  10662-3 0  9999
2 58548  53.1604  64.4415 0001004  73.1301 286.9810 15.30182859125920
TOMORROW-S4             
1 62386U 24247K   26068.53305366  .00012677  00000+0  46927-3 0  9990
2 62386  44.9818 117.9996 0004434 210.4078 149.6548 15.27717249 67702
